STARLINK-36602          
1 67849U 26033AE  26070.91667824 -.01876415  00000+0 -14554-1 0  9999
2 67849  42.9994 257.6655 0001491 277.6855 239.5830 15.74188100  5026
STARLINK-36840          
1 67850U 26034A   26070.88108886  .00231475  00000+0  11408-2 0  9990
2 67850  53.1582 200.3755 0000692 122.7522 237.3567 15.80955165  4284
STARLINK-36348          
1 67851U 26034B   26070.81712023  .00160043  00000+0  79755-3 0  9990
2 67851  53.1583 200.6867 0000796 118.8262 241.2840 15.80924772  4272
STARLINK-36276          
1 67852U 26034C   26070.87958762  .00246355  00000+0  12115-2 0  9996
2 67852  53.1583 200.3642 0000648 115.4742 244.6348 15.80959901  4286
STARLINK-36785          
1 67853U 26034D   26070.81562174  .00194309  00000+0  96323-3 0  9994
2 67853  53.1587 200.6767 0000939  85.6440 274.4690 15.80935432  4271
STARLINK-36608          
1 67854U 26034E   26070.87809001  .00222301  00000+0  10973-2 0  9994
2 67854  53.1583 200.3545 0000646 101.4907 258.6188 15.80947260  4277
STARLINK-36838          
1 67855U 26034F   26070.81411994  .00307447  00000+0  14998-2 0  9995
2 67855  53.1578 200.6653 0000940  97.6594 262.4535 15.80967978  4277
STARLINK-36843          
1 67856U 26034G   26070.87583573  .00239113  00000+0  11769-2 0  9992
2 67856  53.1582 200.3395 0000704 129.3777 230.7308 15.80962356  4289
STARLINK-36828          
1 67857U 26034H   26070.87658824  .00165192  00000+0  82227-3 0  9998
2 67857  53.1582 200.3443 0000782 120.3838 239.7262 15.80933516  4283
STARLINK-36837          
1 67858U 26034J   26070.87508735  .00241426  00000+0  11882-2 0  9997
2 67858  53.1584 200.3341 0000913 107.3571 252.7552 15.80956854  4285
STARLINK-36393          
1 67859U 26034K   26070.81111943  .00271140  00000+0  13292-2 0  9996
2 67859  53.1586 200.6461 0000749 107.3689 252.7416 15.80960553  4270
STARLINK-35873          
1 67860U 26034L   26070.87358641  .00285439  00000+0  13961-2 0  9991
2 67860  53.1583 200.3240 0001180 123.6133 236.5003 15.80971975  4313
