CCSDS_OMM_VERS = 2.0
CREATION_DATE  = 
ORIGINATOR     = 

OBJECT_NAME    = STARLINK-36602
OBJECT_ID      = 2026-033AE
CENTER_NAME    = EARTH
REF_FRAME      = TEME
TIME_SYSTEM    = UTC
MEAN_ELEMENT_THEORY = SGP/SGP4

EPOCH          = 2026-03-11T22:00:00.999936
MEAN_MOTION    = 15.74188100
ECCENTRICITY   = .00014917
INCLINATION    = 42.9994
RA_OF_ASC_NODE = 257.6655
ARG_OF_PERICENTER = 277.6855
MEAN_ANOMALY   = 239.5830

EPHEMERIS_TYPE = 0
CLASSIFICATION_TYPE = U
NORAD_CAT_ID   = 67849
ELEMENT_SET_NO = 999
REV_AT_EPOCH   = 502
BSTAR          = -.14554018E-1
MEAN_MOTION_DOT = -.1876415E-1
MEAN_MOTION_DDOT = 0

CCSDS_OMM_VERS = 2.0
CREATION_DATE  = 
ORIGINATOR     = 

OBJECT_NAME    = STARLINK-36840
OBJECT_ID      = 2026-034A
CENTER_NAME    = EARTH
REF_FRAME      = TEME
TIME_SYSTEM    = UTC
MEAN_ELEMENT_THEORY = SGP/SGP4

EPOCH          = 2026-03-11T21:08:46.077504
MEAN_MOTION    = 15.80955165
ECCENTRICITY   = .00006925
INCLINATION    = 53.1582
RA_OF_ASC_NODE = 200.3755
ARG_OF_PERICENTER = 122.7522
MEAN_ANOMALY   = 237.3567

EPHEMERIS_TYPE = 0
CLASSIFICATION_TYPE = U
NORAD_CAT_ID   = 67850
ELEMENT_SET_NO = 999
REV_AT_EPOCH   = 428
BSTAR          = .11408017E-2
MEAN_MOTION_DOT = .231475E-2
MEAN_MOTION_DDOT = 0

CCSDS_OMM_VERS = 2.0
CREATION_DATE  = 
ORIGINATOR     = 

OBJECT_NAME    = STARLINK-36348
OBJECT_ID      = 2026-034B
CENTER_NAME    = EARTH
REF_FRAME      = TEME
TIME_SYSTEM    = UTC
MEAN_ELEMENT_THEORY = SGP/SGP4

EPOCH          = 2026-03-11T19:36:39.187872
MEAN_MOTION    = 15.80924772
ECCENTRICITY   = .00007962
INCLINATION    = 53.1583
RA_OF_ASC_NODE = 200.6867
ARG_OF_PERICENTER = 118.8262
MEAN_ANOMALY   = 241.2840

EPHEMERIS_TYPE = 0
CLASSIFICATION_TYPE = U
NORAD_CAT_ID   = 67851
ELEMENT_SET_NO = 999
REV_AT_EPOCH   = 427
BSTAR          = .79754868E-3
MEAN_MOTION_DOT = .160043E-2
MEAN_MOTION_DDOT = 0

CCSDS_OMM_VERS = 2.0
CREATION_DATE  = 
ORIGINATOR     = 

OBJECT_NAME    = STARLINK-36276
OBJECT_ID      = 2026-034C
CENTER_NAME    = EARTH
REF_FRAME      = TEME
TIME_SYSTEM    = UTC
MEAN_ELEMENT_THEORY = SGP/SGP4

EPOCH          = 2026-03-11T21:06:36.370368
MEAN_MOTION    = 15.80959901
ECCENTRICITY   = .00006487
INCLINATION    = 53.1583
RA_OF_ASC_NODE = 200.3642
ARG_OF_PERICENTER = 115.4742
MEAN_ANOMALY   = 244.6348

EPHEMERIS_TYPE = 0
CLASSIFICATION_TYPE = U
NORAD_CAT_ID   = 67852
ELEMENT_SET_NO = 999
REV_AT_EPOCH   = 428
BSTAR          = .12115385E-2
MEAN_MOTION_DOT = .246355E-2
MEAN_MOTION_DDOT = 0

CCSDS_OMM_VERS = 2.0
CREATION_DATE  = 
ORIGINATOR     = 

OBJECT_NAME    = STARLINK-36785
OBJECT_ID      = 2026-034D
CENTER_NAME    = EARTH
REF_FRAME      = TEME
TIME_SYSTEM    = UTC
MEAN_ELEMENT_THEORY = SGP/SGP4

EPOCH          = 2026-03-11T19:34:29.718336
MEAN_MOTION    = 15.80935432
ECCENTRICITY   = .00009398
INCLINATION    = 53.1587
RA_OF_ASC_NODE = 200.6767
ARG_OF_PERICENTER = 85.6440
MEAN_ANOMALY   = 274.4690

EPHEMERIS_TYPE = 0
CLASSIFICATION_TYPE = U
NORAD_CAT_ID   = 67853
ELEMENT_SET_NO = 999
REV_AT_EPOCH   = 427
BSTAR          = .96323444E-3
MEAN_MOTION_DOT = .194309E-2
MEAN_MOTION_DDOT = 0

CCSDS_OMM_VERS = 2.0
CREATION_DATE  = 
ORIGINATOR     = 

OBJECT_NAME    = STARLINK-36608
OBJECT_ID      = 2026-034E
CENTER_NAME    = EARTH
REF_FRAME      = TEME
TIME_SYSTEM    = UTC
MEAN_ELEMENT_THEORY = SGP/SGP4

EPOCH          = 2026-03-11T21:04:26.976864
MEAN_MOTION    = 15.80947260
ECCENTRICITY   = .00006462
INCLINATION    = 53.1583
RA_OF_ASC_NODE = 200.3545
ARG_OF_PERICENTER = 101.4907
MEAN_ANOMALY   = 258.6188

EPHEMERIS_TYPE = 0
CLASSIFICATION_TYPE = U
NORAD_CAT_ID   = 67854
ELEMENT_SET_NO = 999
REV_AT_EPOCH   = 427
BSTAR          = .10973002E-2
MEAN_MOTION_DOT = .222301E-2
MEAN_MOTION_DDOT = 0

CCSDS_OMM_VERS = 2.0
CREATION_DATE  = 
ORIGINATOR     = 

OBJECT_NAME    = STARLINK-36838
OBJECT_ID      = 2026-034F
CENTER_NAME    = EARTH
REF_FRAME      = TEME
TIME_SYSTEM    = UTC
MEAN_ELEMENT_THEORY = SGP/SGP4

EPOCH          = 2026-03-11T19:32:19.962816
MEAN_MOTION    = 15.80967978
ECCENTRICITY   = .00009401
INCLINATION    = 53.1578
RA_OF_ASC_NODE = 200.6653
ARG_OF_PERICENTER = 97.6594
MEAN_ANOMALY   = 262.4535

EPHEMERIS_TYPE = 0
CLASSIFICATION_TYPE = U
NORAD_CAT_ID   = 67855
ELEMENT_SET_NO = 999
REV_AT_EPOCH   = 427
BSTAR          = .14998198E-2
MEAN_MOTION_DOT = .307447E-2
MEAN_MOTION_DDOT = 0

CCSDS_OMM_VERS = 2.0
CREATION_DATE  = 
ORIGINATOR     = 

OBJECT_NAME    = STARLINK-36843
OBJECT_ID      = 2026-034G
CENTER_NAME    = EARTH
REF_FRAME      = TEME
TIME_SYSTEM    = UTC
MEAN_ELEMENT_THEORY = SGP/SGP4

EPOCH          = 2026-03-11T21:01:12.207072
MEAN_MOTION    = 15.80962356
ECCENTRICITY   = .00007044
INCLINATION    = 53.1582
RA_OF_ASC_NODE = 200.3395
ARG_OF_PERICENTER = 129.3777
MEAN_ANOMALY   = 230.7308

EPHEMERIS_TYPE = 0
CLASSIFICATION_TYPE = U
NORAD_CAT_ID   = 67856
ELEMENT_SET_NO = 999
REV_AT_EPOCH   = 428
BSTAR          = .11768912E-2
MEAN_MOTION_DOT = .239113E-2
MEAN_MOTION_DDOT = 0

CCSDS_OMM_VERS = 2.0
CREATION_DATE  = 
ORIGINATOR     = 

OBJECT_NAME    = STARLINK-36828
OBJECT_ID      = 2026-034H
CENTER_NAME    = EARTH
REF_FRAME      = TEME
TIME_SYSTEM    = UTC
MEAN_ELEMENT_THEORY = SGP/SGP4

EPOCH          = 2026-03-11T21:02:17.223936
MEAN_MOTION    = 15.80933516
ECCENTRICITY   = .0000782
INCLINATION    = 53.1582
RA_OF_ASC_NODE = 200.3443
ARG_OF_PERICENTER = 120.3838
MEAN_ANOMALY   = 239.7262

EPHEMERIS_TYPE = 0
CLASSIFICATION_TYPE = U
NORAD_CAT_ID   = 67857
ELEMENT_SET_NO = 999
REV_AT_EPOCH   = 428
BSTAR          = .82227345E-3
MEAN_MOTION_DOT = .165192E-2
MEAN_MOTION_DDOT = 0

CCSDS_OMM_VERS = 2.0
CREATION_DATE  = 
ORIGINATOR     = 

OBJECT_NAME    = STARLINK-36837
OBJECT_ID      = 2026-034J
CENTER_NAME    = EARTH
REF_FRAME      = TEME
TIME_SYSTEM    = UTC
MEAN_ELEMENT_THEORY = SGP/SGP4

EPOCH          = 2026-03-11T21:00:07.547040
MEAN_MOTION    = 15.80956854
ECCENTRICITY   = .00009132
INCLINATION    = 53.1584
RA_OF_ASC_NODE = 200.3341
ARG_OF_PERICENTER = 107.3571
MEAN_ANOMALY   = 252.7552

EPHEMERIS_TYPE = 0
CLASSIFICATION_TYPE = U
NORAD_CAT_ID   = 67858
ELEMENT_SET_NO = 999
REV_AT_EPOCH   = 428
BSTAR          = .11882334E-2
MEAN_MOTION_DOT = .241426E-2
MEAN_MOTION_DDOT = 0

CCSDS_OMM_VERS = 2.0
CREATION_DATE  = 
ORIGINATOR     = 

OBJECT_NAME    = STARLINK-36393
OBJECT_ID      = 2026-034K
CENTER_NAME    = EARTH
REF_FRAME      = TEME
TIME_SYSTEM    = UTC
MEAN_ELEMENT_THEORY = SGP/SGP4

EPOCH          = 2026-03-11T19:28:00.718752
MEAN_MOTION    = 15.80960553
ECCENTRICITY   = .00007494
INCLINATION    = 53.1586
RA_OF_ASC_NODE = 200.6461
ARG_OF_PERICENTER = 107.3689
MEAN_ANOMALY   = 252.7416

EPHEMERIS_TYPE = 0
CLASSIFICATION_TYPE = U
NORAD_CAT_ID   = 67859
ELEMENT_SET_NO = 999
REV_AT_EPOCH   = 427
BSTAR          = .13291865E-2
MEAN_MOTION_DOT = .27114E-2
MEAN_MOTION_DDOT = 0

CCSDS_OMM_VERS = 2.0
CREATION_DATE  = 
ORIGINATOR     = 

OBJECT_NAME    = STARLINK-35873
OBJECT_ID      = 2026-034L
CENTER_NAME    = EARTH
REF_FRAME      = TEME
TIME_SYSTEM    = UTC
MEAN_ELEMENT_THEORY = SGP/SGP4

EPOCH          = 2026-03-11T20:57:57.865824
MEAN_MOTION    = 15.80971975
ECCENTRICITY   = .00011803
INCLINATION    = 53.1583
RA_OF_ASC_NODE = 200.3240
ARG_OF_PERICENTER = 123.6133
MEAN_ANOMALY   = 236.5003

EPHEMERIS_TYPE = 0
CLASSIFICATION_TYPE = U
NORAD_CAT_ID   = 67860
ELEMENT_SET_NO = 999
REV_AT_EPOCH   = 431
BSTAR          = .13960526E-2
MEAN_MOTION_DOT = .285439E-2
MEAN_MOTION_DDOT = 0

